ORBCOMM FM20            
1 25416U 98046D   25125.85414864  .00001280  00000+0  47413-3 0  9992
2 25416  44.9960  21.7366 0001356  25.4304 334.6610 14.37133315398172
ORBCOMM FM16            
1 25417U 98046E   25125.89986475  .00001611  00000+0  56516-3 0  9991
2 25417  44.9946  13.6425 0004637  74.5609 285.5752 14.38805113398164
ORBCOMM FM15            
1 25418U 98046F   25126.14339129  .00001407  00000+0  50278-3 0  9991
2 25418  44.9977  17.5052 0004211  74.6905 285.4409 14.38453540398369
ORBCOMM FM14            
1 25419U 98046G   25126.10219975  .00001618  00000+0  56715-3 0  9990
2 25419  44.9969  16.0575 0003221  64.1035 296.0145 14.38807468398371
ORBCOMM FM13            
1 25420U 98046H   25125.90216029  .00001479  00000+0  53546-3 0  9990
2 25420  44.9990  24.5759 0005398  54.9342 305.2012 14.37583221397158
ORBCOMM FM21            
1 25475U 98053A   25125.69052698  .00001265  00000+0  46778-3 0  9996
2 25475  45.0072 110.7287 0002878 321.0249  39.0391 14.37265773391132
ORBCOMM FM22            
1 25476U 98053B   25125.61902382  .00001695  00000+0  59853-3 0  9998
2 25476  45.0058 106.2593 0004382 340.2554  19.8124 14.38278342391149
ORBCOMM FM23            
1 25477U 98053C   25125.90502566  .00001399  00000+0  51061-3 0  9995
2 25477  45.0072 111.8942 0003707 331.3609  28.7035 14.37438373391318
