<?xml version="1.0" encoding="UTF-8"?>
<ndm xmlns:xsi="http://www.w3.org/2001/XMLSchema-instance" xsi:noNamespaceSchemaLocation="https://sanaregistry.org/r/ndmxml_unqualified/ndmxml-2.0.0-master-2.0.xsd">
<omm id="CCSDS_OMM_VERS" version="2.0">
<header><CREATION_DATE/><ORIGINATOR/></header><body><segment><metadata><OBJECT_NAME>ORBCOMM FM20</OBJECT_NAME><OBJECT_ID>1998-046D</OBJECT_ID><CENTER_NAME>EARTH</CENTER_NAME><REF_FRAME>TEME</REF_FRAME><TIME_SYSTEM>UTC</TIME_SYSTEM><MEAN_ELEMENT_THEORY>SGP4</MEAN_ELEMENT_THEORY></metadata><data><meanElements><EPOCH>2025-05-05T20:29:58.442496</EPOCH><MEAN_MOTION>14.37133315</MEAN_MOTION><ECCENTRICITY>.0001356</ECCENTRICITY><INCLINATION>44.9960</INCLINATION><RA_OF_ASC_NODE>21.7366</RA_OF_ASC_NODE><ARG_OF_PERICENTER>25.4304</ARG_OF_PERICENTER><MEAN_ANOMALY>334.6610</MEAN_ANOMALY></meanElements><tleParameters><EPHEMERIS_TYPE>0</EPHEMERIS_TYPE><CLASSIFICATION_TYPE>U</CLASSIFICATION_TYPE><NORAD_CAT_ID>25416</NORAD_CAT_ID><ELEMENT_SET_NO>999</ELEMENT_SET_NO><REV_AT_EPOCH>39817</REV_AT_EPOCH><BSTAR>.47413E-3</BSTAR><MEAN_MOTION_DOT>.128E-4</MEAN_MOTION_DOT><MEAN_MOTION_DDOT>0</MEAN_MOTION_DDOT></tleParameters></data></segment></body></omm>
<omm id="CCSDS_OMM_VERS" version="2.0">
<header><CREATION_DATE/><ORIGINATOR/></header><body><segment><metadata><OBJECT_NAME>ORBCOMM FM16</OBJECT_NAME><OBJECT_ID>1998-046E</OBJECT_ID><CENTER_NAME>EARTH</CENTER_NAME><REF_FRAME>TEME</REF_FRAME><TIME_SYSTEM>UTC</TIME_SYSTEM><MEAN_ELEMENT_THEORY>SGP4</MEAN_ELEMENT_THEORY></metadata><data><meanElements><EPOCH>2025-05-05T21:35:48.314400</EPOCH><MEAN_MOTION>14.38805113</MEAN_MOTION><ECCENTRICITY>.0004637</ECCENTRICITY><INCLINATION>44.9946</INCLINATION><RA_OF_ASC_NODE>13.6425</RA_OF_ASC_NODE><ARG_OF_PERICENTER>74.5609</ARG_OF_PERICENTER><MEAN_ANOMALY>285.5752</MEAN_ANOMALY></meanElements><tleParameters><EPHEMERIS_TYPE>0</EPHEMERIS_TYPE><CLASSIFICATION_TYPE>U</CLASSIFICATION_TYPE><NORAD_CAT_ID>25417</NORAD_CAT_ID><ELEMENT_SET_NO>999</ELEMENT_SET_NO><REV_AT_EPOCH>39816</REV_AT_EPOCH><BSTAR>.56516E-3</BSTAR><MEAN_MOTION_DOT>.1611E-4</MEAN_MOTION_DOT><MEAN_MOTION_DDOT>0</MEAN_MOTION_DDOT></tleParameters></data></segment></body></omm>
<omm id="CCSDS_OMM_VERS" version="2.0">
<header><CREATION_DATE/><ORIGINATOR/></header><body><segment><metadata><OBJECT_NAME>ORBCOMM FM15</OBJECT_NAME><OBJECT_ID>1998-046F</OBJECT_ID><CENTER_NAME>EARTH</CENTER_NAME><REF_FRAME>TEME</REF_FRAME><TIME_SYSTEM>UTC</TIME_SYSTEM><MEAN_ELEMENT_THEORY>SGP4</MEAN_ELEMENT_THEORY></metadata><data><meanElements><EPOCH>2025-05-06T03:26:29.007456</EPOCH><MEAN_MOTION>14.38453540</MEAN_MOTION><ECCENTRICITY>.0004211</ECCENTRICITY><INCLINATION>44.9977</INCLINATION><RA_OF_ASC_NODE>17.5052</RA_OF_ASC_NODE><ARG_OF_PERICENTER>74.6905</ARG_OF_PERICENTER><MEAN_ANOMALY>285.4409</MEAN_ANOMALY></meanElements><tleParameters><EPHEMERIS_TYPE>0</EPHEMERIS_TYPE><CLASSIFICATION_TYPE>U</CLASSIFICATION_TYPE><NORAD_CAT_ID>25418</NORAD_CAT_ID><ELEMENT_SET_NO>999</ELEMENT_SET_NO><REV_AT_EPOCH>39836</REV_AT_EPOCH><BSTAR>.50278E-3</BSTAR><MEAN_MOTION_DOT>.1407E-4</MEAN_MOTION_DOT><MEAN_MOTION_DDOT>0</MEAN_MOTION_DDOT></tleParameters></data></segment></body></omm>
<omm id="CCSDS_OMM_VERS" version="2.0">
<header><CREATION_DATE/><ORIGINATOR/></header><body><segment><metadata><OBJECT_NAME>ORBCOMM FM14</OBJECT_NAME><OBJECT_ID>1998-046G</OBJECT_ID><CENTER_NAME>EARTH</CENTER_NAME><REF_FRAME>TEME</REF_FRAME><TIME_SYSTEM>UTC</TIME_SYSTEM><MEAN_ELEMENT_THEORY>SGP4</MEAN_ELEMENT_THEORY></metadata><data><meanElements><EPOCH>2025-05-06T02:27:10.058400</EPOCH><MEAN_MOTION>14.38807468</MEAN_MOTION><ECCENTRICITY>.0003221</ECCENTRICITY><INCLINATION>44.9969</INCLINATION><RA_OF_ASC_NODE>16.0575</RA_OF_ASC_NODE><ARG_OF_PERICENTER>64.1035</ARG_OF_PERICENTER><MEAN_ANOMALY>296.0145</MEAN_ANOMALY></meanElements><tleParameters><EPHEMERIS_TYPE>0</EPHEMERIS_TYPE><CLASSIFICATION_TYPE>U</CLASSIFICATION_TYPE><NORAD_CAT_ID>25419</NORAD_CAT_ID><ELEMENT_SET_NO>999</ELEMENT_SET_NO><REV_AT_EPOCH>39837</REV_AT_EPOCH><BSTAR>.56715E-3</BSTAR><MEAN_MOTION_DOT>.1618E-4</MEAN_MOTION_DOT><MEAN_MOTION_DDOT>0</MEAN_MOTION_DDOT></tleParameters></data></segment></body></omm>
<omm id="CCSDS_OMM_VERS" version="2.0">
<header><CREATION_DATE/><ORIGINATOR/></header><body><segment><metadata><OBJECT_NAME>ORBCOMM FM13</OBJECT_NAME><OBJECT_ID>1998-046H</OBJECT_ID><CENTER_NAME>EARTH</CENTER_NAME><REF_FRAME>TEME</REF_FRAME><TIME_SYSTEM>UTC</TIME_SYSTEM><MEAN_ELEMENT_THEORY>SGP4</MEAN_ELEMENT_THEORY></metadata><data><meanElements><EPOCH>2025-05-05T21:39:06.649056</EPOCH><MEAN_MOTION>14.37583221</MEAN_MOTION><ECCENTRICITY>.0005398</ECCENTRICITY><INCLINATION>44.9990</INCLINATION><RA_OF_ASC_NODE>24.5759</RA_OF_ASC_NODE><ARG_OF_PERICENTER>54.9342</ARG_OF_PERICENTER><MEAN_ANOMALY>305.2012</MEAN_ANOMALY></meanElements><tleParameters><EPHEMERIS_TYPE>0</EPHEMERIS_TYPE><CLASSIFICATION_TYPE>U</CLASSIFICATION_TYPE><NORAD_CAT_ID>25420</NORAD_CAT_ID><ELEMENT_SET_NO>999</ELEMENT_SET_NO><REV_AT_EPOCH>39715</REV_AT_EPOCH><BSTAR>.53546E-3</BSTAR><MEAN_MOTION_DOT>.1479E-4</MEAN_MOTION_DOT><MEAN_MOTION_DDOT>0</MEAN_MOTION_DDOT></tleParameters></data></segment></body></omm>
<omm id="CCSDS_OMM_VERS" version="2.0">
<header><CREATION_DATE/><ORIGINATOR/></header><body><segment><metadata><OBJECT_NAME>ORBCOMM FM21</OBJECT_NAME><OBJECT_ID>1998-053A</OBJECT_ID><CENTER_NAME>EARTH</CENTER_NAME><REF_FRAME>TEME</REF_FRAME><TIME_SYSTEM>UTC</TIME_SYSTEM><MEAN_ELEMENT_THEORY>SGP4</MEAN_ELEMENT_THEORY></metadata><data><meanElements><EPOCH>2025-05-05T16:34:21.531072</EPOCH><MEAN_MOTION>14.37265773</MEAN_MOTION><ECCENTRICITY>.0002878</ECCENTRICITY><INCLINATION>45.0072</INCLINATION><RA_OF_ASC_NODE>110.7287</RA_OF_ASC_NODE><ARG_OF_PERICENTER>321.0249</ARG_OF_PERICENTER><MEAN_ANOMALY>39.0391</MEAN_ANOMALY></meanElements><tleParameters><EPHEMERIS_TYPE>0</EPHEMERIS_TYPE><CLASSIFICATION_TYPE>U</CLASSIFICATION_TYPE><NORAD_CAT_ID>25475</NORAD_CAT_ID><ELEMENT_SET_NO>999</ELEMENT_SET_NO><REV_AT_EPOCH>39113</REV_AT_EPOCH><BSTAR>.46778E-3</BSTAR><MEAN_MOTION_DOT>.1265E-4</MEAN_MOTION_DOT><MEAN_MOTION_DDOT>0</MEAN_MOTION_DDOT></tleParameters></data></segment></body></omm>
<omm id="CCSDS_OMM_VERS" version="2.0">
<header><CREATION_DATE/><ORIGINATOR/></header><body><segment><metadata><OBJECT_NAME>ORBCOMM FM22</OBJECT_NAME><OBJECT_ID>1998-053B</OBJECT_ID><CENTER_NAME>EARTH</CENTER_NAME><REF_FRAME>TEME</REF_FRAME><TIME_SYSTEM>UTC</TIME_SYSTEM><MEAN_ELEMENT_THEORY>SGP4</MEAN_ELEMENT_THEORY></metadata><data><meanElements><EPOCH>2025-05-05T14:51:23.658048</EPOCH><MEAN_MOTION>14.38278342</MEAN_MOTION><ECCENTRICITY>.0004382</ECCENTRICITY><INCLINATION>45.0058</INCLINATION><RA_OF_ASC_NODE>106.2593</RA_OF_ASC_NODE><ARG_OF_PERICENTER>340.2554</ARG_OF_PERICENTER><MEAN_ANOMALY>19.8124</MEAN_ANOMALY></meanElements><tleParameters><EPHEMERIS_TYPE>0</EPHEMERIS_TYPE><CLASSIFICATION_TYPE>U</CLASSIFICATION_TYPE><NORAD_CAT_ID>25476</NORAD_CAT_ID><ELEMENT_SET_NO>999</ELEMENT_SET_NO><REV_AT_EPOCH>39114</REV_AT_EPOCH><BSTAR>.59853E-3</BSTAR><MEAN_MOTION_DOT>.1695E-4</MEAN_MOTION_DOT><MEAN_MOTION_DDOT>0</MEAN_MOTION_DDOT></tleParameters></data></segment></body></omm>
<omm id="CCSDS_OMM_VERS" version="2.0">
<header><CREATION_DATE/><ORIGINATOR/></header><body><segment><metadata><OBJECT_NAME>ORBCOMM FM23</OBJECT_NAME><OBJECT_ID>1998-053C</OBJECT_ID><CENTER_NAME>EARTH</CENTER_NAME><REF_FRAME>TEME</REF_FRAME><TIME_SYSTEM>UTC</TIME_SYSTEM><MEAN_ELEMENT_THEORY>SGP4</MEAN_ELEMENT_THEORY></metadata><data><meanElements><EPOCH>2025-05-05T21:43:14.217024</EPOCH><MEAN_MOTION>14.37438373</MEAN_MOTION><ECCENTRICITY>.0003707</ECCENTRICITY><INCLINATION>45.0072</INCLINATION><RA_OF_ASC_NODE>111.8942</RA_OF_ASC_NODE><ARG_OF_PERICENTER>331.3609</ARG_OF_PERICENTER><MEAN_ANOMALY>28.7035</MEAN_ANOMALY></meanElements><tleParameters><EPHEMERIS_TYPE>0</EPHEMERIS_TYPE><CLASSIFICATION_TYPE>U</CLASSIFICATION_TYPE><NORAD_CAT_ID>25477</NORAD_CAT_ID><ELEMENT_SET_NO>999</ELEMENT_SET_NO><REV_AT_EPOCH>39131</REV_AT_EPOCH><BSTAR>.51061E-3</BSTAR><MEAN_MOTION_DOT>.1399E-4</MEAN_MOTION_DOT><MEAN_MOTION_DDOT>0</MEAN_MOTION_DDOT></tleParameters></data></segment></body></omm>

</ndm>
